NORAD_CAT_ID,OBJECT_NAME,OBJECT_TYPE,EPOCH,MEAN_MOTION,ECCENTRICITY,INCLINATION,RA_OF_ASC_NODE,ARG_OF_PERICENTER,MEAN_ANOMALY,BSTAR,MEAN_MOTION_DOT,MEAN_MOTION_DDOT,TLE_LINE0,TLE_LINE1,TLE_LINE2,SEMIMAJOR_AXIS,PERIOD,APOGEE,PERIGEE,DECAYED
55628.0,STARLINK-5484,PAYLOAD,2024-05-03 09:30:30,14.98344269,0.0002724,69.9987,107.2009,266.4356,93.6492,6.249e-05,6.53e-06,0.0,0 STARLINK-5484,1 55628U 23021A   24124.39618215  .00000653  00000-0  62490-4 0  9991,2 55628  69.9987 107.2009 0002724 266.4356  93.6492 14.98344269 67143,6950.149,96.106,573.907,570.121,0.0
55628.0,STARLINK-5484,PAYLOAD,2024-05-03 15:55:03,14.9834247,0.0001624,70.0014,106.5267,270.2983,89.799,-0.00030221,-3.698e-05,0.0,0 STARLINK-5484,1 55628U 23021A   24124.66323362 -.00003698  00000-0 -30221-3 0  9997,2 55628  70.0014 106.5267 0001624 270.2983  89.7990 14.98342470 66883,6950.154,96.106,573.148,570.891,0.0
55628.0,STARLINK-5484,PAYLOAD,2024-05-04 04:44:08,14.983285,0.0002596,69.9991,105.1811,267.2648,92.8213,-0.00015184,-1.904e-05,0.0,0 STARLINK-5484,1 55628U 23021A   24125.19731557 -.00001904  00000-0 -15184-3 0  9994,2 55628  69.9991 105.1811 0002596 267.2648  92.8213 14.98328500 66967,6950.198,96.107,573.867,570.258,0.0
55628.0,STARLINK-5484,PAYLOAD,2024-05-05 04:46:08,14.98331772,0.000276,69.999,102.657,260.1223,99.9624,-9.5393e-05,-1.231e-05,0.0,0 STARLINK-5484,1 55628U 23021A   24126.19871251 -.00001231  00000-0 -95393-4 0  9995,2 55628  69.9990 102.6570 0002760 260.1223  99.9624 14.98331772 67111,6950.187,96.107,573.971,570.134,0.0
55628.0,STARLINK-5484,PAYLOAD,2024-05-05 07:58:24,14.98330918,0.0002836,69.9988,102.3198,268.4669,91.6165,-9.758e-05,-1.257e-05,0.0,0 STARLINK-5484,1 55628U 23021A   24126.33223335 -.00001257  00000-0 -97580-4 0  9993,2 55628  69.9988 102.3198 0002836 268.4669  91.6165 14.98330918 67435,6950.19,96.107,574.026,570.084,0.0
55628.0,STARLINK-5484,PAYLOAD,2024-05-06 04:48:09,14.983304,0.0002963,69.9988,100.131,268.4111,91.6709,0.0001646,1.872e-05,0.0,0 STARLINK-5484,1 55628U 23021A   24127.20010720  .00001872  00000-0  16460-3 0  9990,2 55628  69.9988 100.1310 0002963 268.4111  91.6709 14.98330400 67261,6950.192,96.107,574.116,569.997,0.0
55628.0,STARLINK-5484,PAYLOAD,2024-05-06 08:00:25,14.98332949,0.0002936,69.9989,99.7944,268.3124,91.7699,0.00018722,2.142e-05,0.0,0 STARLINK-5484,1 55628U 23021A   24127.33362500  .00002142  00000-0  18722-3 0  9994,2 55628  69.9989  99.7944 0002936 268.3124  91.7699 14.98332949 67585,6950.184,96.107,574.089,570.008,0.0
55628.0,STARLINK-5484,PAYLOAD,2024-05-06 22:25:37,14.98336659,0.0002916,69.999,98.2795,268.3683,91.7142,0.00013008,1.46e-05,0.0,0 STARLINK-5484,1 55628U 23021A   24127.93446271  .00001460  00000-0  13008-3 0  9992,2 55628  69.9990  98.2795 0002916 268.3683  91.7142 14.98336659 67678,6950.172,96.107,574.064,570.011,0.0
55628.0,STARLINK-5484,PAYLOAD,2024-05-07 04:50:09,14.98340073,0.0002915,69.9991,97.6062,268.3188,91.7637,0.00014574,1.647e-05,0.0,0 STARLINK-5484,1 55628U 23021A   24128.20149911  .00001647  00000-0  14574-3 0  9990,2 55628  69.9991  97.6062 0002915 268.3188  91.7637 14.98340073 67414,6950.162,96.106,574.053,570.001,0.0
55628.0,STARLINK-5484,PAYLOAD,2024-05-07 08:02:25,14.98341207,0.0002905,69.9992,97.2695,268.2917,91.7909,0.00015295,1.733e-05,0.0,0 STARLINK-5484,1 55628U 23021A   24128.33501736  .00001733  00000-0  15295-3 0  9998,2 55628  69.9992  97.2695 0002905 268.2917  91.7909 14.98341207 67738,6950.158,96.106,574.042,570.004,0.0
55628.0,STARLINK-5484,PAYLOAD,2024-05-07 20:51:30,14.98334951,0.0002793,69.9995,95.9228,268.191,91.8929,-7.2466e-05,-9.58e-06,0.0,0 STARLINK-5484,1 55628U 23021A   24128.86910524 -.00000958  00000-0 -72466-4 0  9999,2 55628  69.9995  95.9228 0002793 268.1910  91.8929 14.98334951 67512,6950.178,96.107,573.984,570.101,0.0
55628.0,STARLINK-5484,PAYLOAD,2024-05-07 22:27:38,14.98333217,0.0002788,69.9996,95.7545,268.213,91.8709,-9.0589e-05,-1.174e-05,0.0,0 STARLINK-5484,1 55628U 23021A   24128.93586664 -.00001174  00000-0 -90589-4 0  9998,2 55628  69.9996  95.7545 0002788 268.2130  91.8709 14.98333217 67826,6950.183,96.107,573.986,570.11,0.0
55628.0,STARLINK-5484,PAYLOAD,2024-05-08 08:04:27,14.98331414,0.000284,69.9995,94.7447,268.4435,91.6399,-0.00010479,-1.343e-05,0.0,0 STARLINK-5484,1 55628U 23021A   24129.33642720 -.00001343  00000-0 -10479-3 0  9996,2 55628  69.9995  94.7447 0002840 268.4435  91.6399 14.98331414 67880,6950.189,96.107,574.027,570.08,0.0
55628.0,STARLINK-5484,PAYLOAD,2024-05-08 22:29:39,14.98337279,0.0002825,69.9996,93.2299,268.8593,91.2243,-4.8982e-05,-6.77e-06,0.0,0 STARLINK-5484,1 55628U 23021A   24129.93726032 -.00000677  00000-0 -48982-4 0  9991,2 55628  69.9996  93.2299 0002825 268.8593  91.2243 14.98337279 67971,6950.17,96.107,573.999,570.072,0.0
55628.0,STARLINK-5484,PAYLOAD,2024-05-09 04:54:11,14.98338205,0.0002803,69.9997,92.5565,269.1651,90.9187,-2.6409e-05,-4.08e-06,0.0,0 STARLINK-5484,1 55628U 23021A   24130.20429801 -.00000408  00000-0 -26409-4 0  9999,2 55628  69.9997  92.5565 0002803 269.1651  90.9187 14.98338205 67710,6950.168,96.106,573.981,570.084,0.0
55628.0,STARLINK-5484,PAYLOAD,2024-05-09 08:06:27,14.98338466,0.0002637,69.9996,92.2199,269.4388,90.6469,3.3431e-05,3.06e-06,0.0,0 STARLINK-5484,1 55628U 23021A   24130.33781605  .00000306  00000-0  33431-4 0  9994,2 55628  69.9996  92.2199 0002637 269.4388  90.6469 14.98338466 68039,6950.167,96.106,573.864,570.199,0.0
55628.0,STARLINK-5484,PAYLOAD,2024-05-09 22:31:40,14.98324376,0.0002982,70.0,90.7052,270.0567,90.025,4.8171e-05,4.82e-06,0.0,0 STARLINK-5484,1 55628U 23021A   24130.93866333  .00000482  00000-0  48171-4 0  9994,2 55628  70.0000  90.7052 0002982 270.0567  90.0250 14.98324376 68126,6950.21,96.107,574.148,570.003,0.0
55628.0,STARLINK-5484,PAYLOAD,2024-05-10 03:20:04,14.98328194,0.0003259,69.9999,90.2002,271.3352,88.7434,7.3623e-05,7.85e-06,0.0,0 STARLINK-5484,1 55628U 23021A   24131.13894040  .00000785  00000-0  73623-4 0  9999,2 55628  69.9999  90.2002 0003259 271.3352  88.7434 14.98328194 67853,6950.198,96.107,574.329,569.798,0.0
55628.0,STARLINK-5484,PAYLOAD,2024-05-10 14:33:01,14.98328801,0.0002383,70.0002,89.0218,274.3292,85.7595,-1.0424e-05,-2.17e-06,0.0,0 STARLINK-5484,1 55628U 23021A   24131.60626514 -.00000217  00000-0 -10424-4 0  9992,2 55628  70.0002  89.0218 0002383 274.3292  85.7595 14.98328801 68221,6950.197,96.107,573.718,570.405,0.0
55628.0,STARLINK-5484,PAYLOAD,2024-05-10 22:33:41,14.98330648,0.000276,70.0002,88.1797,271.5391,88.5452,-1.4015e-05,-2.6e-06,0.0,0 STARLINK-5484,1 55628U 23021A   24131.94006272 -.00000260  00000-0 -14015-4 0  9990,2 55628  70.0002  88.1797 0002760 271.5391  88.5452 14.98330648 68271,6950.191,96.107,573.974,570.138,0.0
55628.0,STARLINK-5484,PAYLOAD,2024-05-11 04:58:12,14.98346646,0.0002534,70.0006,87.5079,252.2328,107.8555,0.00015579,1.767e-05,0.0,0 STARLINK-5484,1 55628U 23021A   24132.20708723  .00001767  00000-0  15579-3 0  9996,2 55628  70.0006  87.5079 0002534 252.2328 107.8555 14.98346646 68012,6950.141,96.106,573.768,570.245,0.0
55628.0,STARLINK-5484,PAYLOAD,2024-05-11 06:34:19,14.98358669,0.0002433,70.0006,87.3392,275.1049,84.9832,0.00030424,3.542e-05,0.0,0 STARLINK-5484,1 55628U 23021A   24132.27383722  .00003542  00000-0  30424-3 0  9990,2 55628  70.0006  87.3392 0002433 275.1049  84.9832 14.98358669 68022,6950.104,96.105,573.66,570.278,0.0
55628.0,STARLINK-5484,PAYLOAD,2024-05-11 14:34:58,14.98368694,0.000258,70.0007,86.497,276.3337,83.7528,0.00035278,4.123e-05,0.0,0 STARLINK-5484,1 55628U 23021A   24132.60762234  .00004123  00000-0  35278-3 0  9994,2 55628  70.0007  86.4970 0002580 276.3337  83.7528 14.98368694 68074,6950.073,96.105,573.731,570.145,0.0
55628.0,STARLINK-5484,PAYLOAD,2024-05-11 22:35:41,14.98327218,0.0003269,70.0003,85.6559,269.0563,91.0222,-3.6365e-05,-5.27e-06,0.0,0 STARLINK-5484,1 55628U 23021A   24132.94145245 -.00000527  00000-0 -36365-4 0  9993,2 55628  70.0003  85.6559 0003269 269.0563  91.0222 14.98327218 68428,6950.201,96.107,574.339,569.794,0.0
55628.0,STARLINK-5484,PAYLOAD,2024-05-12 05:00:17,14.98285036,0.0003044,69.9998,84.9826,266.3867,93.6944,-0.00051325,-6.204e-05,0.0,0 STARLINK-5484,1 55628U 23021A   24133.20853524 -.00006204  00000-0 -51325-3 0  9999,2 55628  69.9998  84.9826 0003044 266.3867  93.6944 14.98285036 68166,6950.332,96.11,574.313,570.081,0.0
55628.0,STARLINK-5484,PAYLOAD,2024-05-12 06:36:26,14.98274405,0.0002903,70.0007,84.8143,266.3939,93.6888,-0.00039824,-4.835e-05,0.0,0 STARLINK-5484,1 55628U 23021A   24133.27530145 -.00004835  00000-0 -39824-3 0  9995,2 55628  70.0007  84.8143 0002903 266.3939  93.6888 14.98274405 68170,6950.365,96.111,574.248,570.212,0.0
55628.0,STARLINK-5484,PAYLOAD,2024-05-12 14:37:06,14.98304635,0.0003024,70.0002,83.9727,269.0741,91.0072,-0.00080571,-9.687e-05,0.0,0 STARLINK-5484,1 55628U 23021A   24133.60909797 -.00009687  00000-0 -80571-3 0  9990,2 55628  70.0002  83.9727 0003024 269.0741  91.0072 14.98304635 68524,6950.271,96.109,574.238,570.035,0.0
55628.0,STARLINK-5484,PAYLOAD,2024-05-12 21:01:39,14.98283285,0.0002926,70.0008,83.3003,269.611,90.4714,-0.00042213,-5.12e-05,0.0,0 STARLINK-5484,1 55628U 23021A   24133.87615086 -.00005120  00000-0 -42213-3 0  9993,2 55628  70.0008  83.3003 0002926 269.6110  90.4714 14.98283285 68261,6950.337,96.11,574.236,570.169,0.0
55628.0,STARLINK-5484,PAYLOAD,2024-05-12 22:37:47,14.98282803,0.0002934,70.0008,83.1319,269.4057,90.6765,-0.00042036,-5.099e-05,0.0,0 STARLINK-5484,1 55628U 23021A   24133.94291297 -.00005099  00000-0 -42036-3 0  9993,2 55628  70.0008  83.1319 0002934 269.4057  90.6765 14.98282803 68573,6950.339,96.11,574.243,570.165,0.0
55628.0,STARLINK-5484,PAYLOAD,2024-05-13 05:02:16,14.9833055,0.0002628,70.0007,82.4589,257.6197,102.4668,-9.5165e-05,-1.228e-05,0.0,0 STARLINK-5484,1 55628U 23021A   24134.20991855 -.00001228  00000-0 -95165-4 0  9992,2 55628  70.0007  82.4589 0002628 257.6197 102.4668 14.98330550 68316,6950.191,96.107,573.883,570.23,0.0
